{"type": "FeatureCollection", "features": [ {"type": "Feature", "properties": {"norad_id": 43058, "name": "GSAT0218 (GALILEO 22)", "group": "galileo", "lat": -38.28850202088722, "lon": 80.09824797376741, "alt_km": 23224.86801785129, "timestamp": "2025-12-09T11:33:55.062803+00:00", "meta": {"OBJECT_NAME": "GSAT0218 (GALILEO 22)", "OBJECT_ID": "2017-079D", "EPOCH": "2025-12-06T18:17:46.482720", "MEAN_MOTION": 1.70473862, "ECCENTRICITY": 0.00028449, "INCLINATION": 55.1307, "RA_OF_ASC_NODE": 226.7982, "ARG_OF_PERICENTER": 305.5375, "MEAN_ANOMALY": 54.5328, "EPHEMERIS_TYPE": 0, "CLASSIFICATION_TYPE": "U", "NORAD_CAT_ID": 43058, "ELEMENT_SET_NO": 999, "REV_AT_EPOCH": 4973, "BSTAR": 0, "MEAN_MOTION_DOT": 2.9e-07, "MEAN_MOTION_DDOT": 0}, "tle": {"line1": "1 43058U 17079D   25340.76234355  .00000029  00000+0  00000+0 0  9992", "line2": "2 43058  55.1307 226.7982 0002844 305.5375  54.5328  1.70473862 49733"}}, "geometry": {"type": "Point", "coordinates": [80.09824797376741, -38.28850202088722]}}, {"type": "Feature", "properties": {"norad_id": 43564, "name": "GSAT0221 (GALILEO 25)", "group": "galileo", "lat": -52.73618734878611, "lon": -70.95846023823368, "alt_km": 23208.038487478574, "timestamp": "2025-12-09T11:33:55.062816+00:00", "meta": {"OBJECT_NAME": "GSAT0221 (GALILEO 25)", "OBJECT_ID": "2018-060A", "EPOCH": "2025-12-09T00:16:12.119232", "MEAN_MOTION": 1.70475733, "ECCENTRICITY": 0.0006701, "INCLINATION": 57.2286, "RA_OF_ASC_NODE": 346.9182, "ARG_OF_PERICENTER": 282.1379, "MEAN_ANOMALY": 77.8037, "EPHEMERIS_TYPE": 0, "CLASSIFICATION_TYPE": "U", "NORAD_CAT_ID": 43564, "ELEMENT_SET_NO": 999, "REV_AT_EPOCH": 4592, "BSTAR": 0, "MEAN_MOTION_DOT": -8.7e-07, "MEAN_MOTION_DDOT": 0}, "tle": {"line1": "1 43564U 18060A   25343.01125138 -.00000087  00000+0  00000+0 0  9999", "line2": "2 43564  57.2286 346.9182 0006701 282.1379  77.8037  1.70475733 45922"}}, "geometry": {"type": "Point", "coordinates": [-70.95846023823368, -52.73618734878611]}}, {"type": "Feature", "properties": {"norad_id": 43565, "name": "GSAT0222 (GALILEO 26)", "group": "galileo", "lat": 21.512861827114136, "lon": 152.19824731113277, "alt_km": 23225.2079123189, "timestamp": "2025-12-09T11:33:55.062828+00:00", "meta": {"OBJECT_NAME": "GSAT0222 (GALILEO 26)", "OBJECT_ID": "2018-060B", "EPOCH": "2025-12-08T15:27:21.492000", "MEAN_MOTION": 1.70475431, "ECCENTRICITY": 0.00061741, "INCLINATION": 57.2322, "RA_OF_ASC_NODE": 346.9312, "ARG_OF_PERICENTER": 262.3002, "MEAN_ANOMALY": 97.6467, "EPHEMERIS_TYPE": 0, "CLASSIFICATION_TYPE": "U", "NORAD_CAT_ID": 43565, "ELEMENT_SET_NO": 999, "REV_AT_EPOCH": 4596, "BSTAR": 0, "MEAN_MOTION_DOT": -8.6e-07, "MEAN_MOTION_DDOT": 0}, "tle": {"line1": "1 43565U 18060B   25342.64399875 -.00000086  00000+0  00000+0 0  9998", "line2": "2 43565  57.2322 346.9312 0006174 262.3002  97.6467  1.70475431 45962"}}, "geometry": {"type": "Point", "coordinates": [152.19824731113277, 21.512861827114136]}}, {"type": "Feature", "properties": {"norad_id": 43566, "name": "GSAT0219 (GALILEO 23)", "group": "galileo", "lat": 15.47872612658117, "lon": -2.8162640698052903, "alt_km": 23221.033177671223, "timestamp": "2025-12-09T11:33:55.062843+00:00", "meta": {"OBJECT_NAME": "GSAT0219 (GALILEO 23)", "OBJECT_ID": "2018-060C", "EPOCH": "2025-12-07T16:36:27.181728", "MEAN_MOTION": 1.7047564, "ECCENTRICITY": 0.00057893, "INCLINATION": 57.2316, "RA_OF_ASC_NODE": 346.9585, "ARG_OF_PERICENTER": 285.9629, "MEAN_ANOMALY": 73.992, "EPHEMERIS_TYPE": 0, "CLASSIFICATION_TYPE": "U", "NORAD_CAT_ID": 43566, "ELEMENT_SET_NO": 999, "REV_AT_EPOCH": 4592, "BSTAR": 0, "MEAN_MOTION_DOT": -8.4e-07, "MEAN_MOTION_DDOT": 0}, "tle": {"line1": "1 43566U 18060C   25341.69198127 -.00000084  00000+0  00000+0 0  9998", "line2": "2 43566  57.2316 346.9585 0005789 285.9629  73.9920  1.70475640 45924"}}, "geometry": {"type": "Point", "coordinates": [-2.8162640698052903, 15.47872612658117]}}, {"type": "Feature", "properties": {"norad_id": 43567, "name": "GSAT0220 (GALILEO 24)", "group": "galileo", "lat": -48.41439622526829, "lon": -146.54744292635894, "alt_km": 23213.492636972314, "timestamp": "2025-12-09T11:33:55.062854+00:00", "meta": {"OBJECT_NAME": "GSAT0220 (GALILEO 24)", "OBJECT_ID": "2018-060D", "EPOCH": "2025-12-07T07:49:54.342624", "MEAN_MOTION": 1.70475454, "ECCENTRICITY": 0.00061757, "INCLINATION": 57.2312, "RA_OF_ASC_NODE": 346.9681, "ARG_OF_PERICENTER": 282.9528, "MEAN_ANOMALY": 76.9979, "EPHEMERIS_TYPE": 0, "CLASSIFICATION_TYPE": "U", "NORAD_CAT_ID": 43567, "ELEMENT_SET_NO": 999, "REV_AT_EPOCH": 4590, "BSTAR": 0, "MEAN_MOTION_DOT": -8.3e-07, "MEAN_MOTION_DDOT": 0}, "tle": {"line1": "1 43567U 18060D   25341.32632341 -.00000083  00000+0  00000+0 0  9999", "line2": "2 43567  57.2312 346.9681 0006175 282.9528  76.9979  1.70475454 45901"}}, "geometry": {"type": "Point", "coordinates": [-146.54744292635894, -48.41439622526829]}}, {"type": "Feature", "properties": {"norad_id": 49809, "name": "GSAT0223 (GALILEO 27)", "group": "galileo", "lat": -21.904210299109824, "lon": -28.219292948975305, "alt_km": 23223.189471706948, "timestamp": "2025-12-09T11:33:55.062866+00:00", "meta": {"OBJECT_NAME": "GSAT0223 (GALILEO 27)", "OBJECT_ID": "2021-116A", "EPOCH": "2025-12-08T12:32:15.823104", "MEAN_MOTION": 1.70475635, "ECCENTRICITY": 0.00046796, "INCLINATION": 57.2201, "RA_OF_ASC_NODE": 346.8263, "ARG_OF_PERICENTER": 251.0345, "MEAN_ANOMALY": 213.7248, "EPHEMERIS_TYPE": 0, "CLASSIFICATION_TYPE": "U", "NORAD_CAT_ID": 49809, "ELEMENT_SET_NO": 999, "REV_AT_EPOCH": 2493, "BSTAR": 0, "MEAN_MOTION_DOT": -8.6e-07, "MEAN_MOTION_DDOT": 0}, "tle": {"line1": "1 49809U 21116A   25342.52240536 -.00000086  00000+0  00000+0 0  9997", "line2": "2 49809  57.2201 346.8263 0004679 251.0345 213.7248  1.70475635 24930"}}, "geometry": {"type": "Point", "coordinates": [-28.219292948975305, -21.904210299109824]}}, {"type": "Feature", "properties": {"norad_id": 49810, "name": "GSAT0224 (GALILEO 28)", "group": "galileo", "lat": 57.007150090684256, "lon": 69.81091141385318, "alt_km": 23227.187186775554, "timestamp": "2025-12-09T11:33:55.062877+00:00", "meta": {"OBJECT_NAME": "GSAT0224 (GALILEO 28)", "OBJECT_ID": "2021-116B", "EPOCH": "2025-12-07T13:56:35.698272", "MEAN_MOTION": 1.7047563, "ECCENTRICITY": 0.00040182, "INCLINATION": 57.2213, "RA_OF_ASC_NODE": 346.8506, "ARG_OF_PERICENTER": 254.5241, "MEAN_ANOMALY": 105.0474, "EPHEMERIS_TYPE": 0, "CLASSIFICATION_TYPE": "U", "NORAD_CAT_ID": 49810, "ELEMENT_SET_NO": 999, "REV_AT_EPOCH": 2493, "BSTAR": 0, "MEAN_MOTION_DOT": -8.4e-07, "MEAN_MOTION_DDOT": 0}, "tle": {"line1": "1 49810U 21116B   25341.58096873 -.00000084  00000+0  00000+0 0  9995", "line2": "2 49810  57.2213 346.8506 0004018 254.5241 105.0474  1.70475630 24934"}}, "geometry": {"type": "Point", "coordinates": [69.81091141385318, 57.007150090684256]}}, {"type": "Feature", "properties": {"norad_id": 59598, "name": "GSAT0225 (GALILEO 29)", "group": "galileo", "lat": 53.451602803145256, "lon": 177.16045611407066, "alt_km": 23216.40913819956, "timestamp": "2025-12-09T11:33:55.062888+00:00", "meta": {"OBJECT_NAME": "GSAT0225 (GALILEO 29)", "OBJECT_ID": "2024-079A", "EPOCH": "2025-12-07T13:01:48.128160", "MEAN_MOTION": 1.70474573, "ECCENTRICITY": 0.0002046, "INCLINATION": 54.9986, "RA_OF_ASC_NODE": 106.4402, "ARG_OF_PERICENTER": 173.6326, "MEAN_ANOMALY": 155.0404, "EPHEMERIS_TYPE": 0, "CLASSIFICATION_TYPE": "U", "NORAD_CAT_ID": 59598, "ELEMENT_SET_NO": 999, "REV_AT_EPOCH": 1004, "BSTAR": 0, "MEAN_MOTION_DOT": 7e-08, "MEAN_MOTION_DDOT": 0}, "tle": {"line1": "1 59598U 24079A   25341.54291815  .00000007  00000+0  00000+0 0  9993", "line2": "2 59598  54.9986 106.4402 0002046 173.6326 155.0404  1.70474573 10048"}}, "geometry": {"type": "Point", "coordinates": [177.16045611407066, 53.451602803145256]}}, {"type": "Feature", "properties": {"norad_id": 59600, "name": "GSAT0227 (GALILEO 30)", "group": "galileo", "lat": -27.150804101321388, "lon": 85.33338077057621, "alt_km": 23233.894864479396, "timestamp": "2025-12-09T11:33:55.062900+00:00", "meta": {"OBJECT_NAME": "GSAT0227 (GALILEO 30)", "OBJECT_ID": "2024-079C", "EPOCH": "2025-12-08T08:44:01.424832", "MEAN_MOTION": 1.70474656, "ECCENTRICITY": 0.00032972, "INCLINATION": 54.9942, "RA_OF_ASC_NODE": 106.4167, "ARG_OF_PERICENTER": 114.0276, "MEAN_ANOMALY": 245.9681, "EPHEMERIS_TYPE": 0, "CLASSIFICATION_TYPE": "U", "NORAD_CAT_ID": 59600, "ELEMENT_SET_NO": 999, "REV_AT_EPOCH": 1011, "BSTAR": 0, "MEAN_MOTION_DOT": 8e-08, "MEAN_MOTION_DDOT": 0}, "tle": {"line1": "1 59600U 24079C   25342.36390538  .00000008  00000+0  00000+0 0  9991", "line2": "2 59600  54.9942 106.4167 0003297 114.0276 245.9681  1.70474656 10110"}}, "geometry": {"type": "Point", "coordinates": [85.33338077057621, -27.150804101321388]}}, {"type": "Feature", "properties": {"norad_id": 61182, "name": "GSAT0232 (GALILEO 32)", "group": "galileo", "lat": 15.818178835375061, "lon": 35.19379668606045, "alt_km": 23216.73400019147, "timestamp": "2025-12-09T11:33:55.062911+00:00", "meta": {"OBJECT_NAME": "GSAT0232 (GALILEO 32)", "OBJECT_ID": "2024-167A", "EPOCH": "2025-12-08T22:09:29.829888", "MEAN_MOTION": 1.70473333, "ECCENTRICITY": 0.000203, "INCLINATION": 55.2421, "RA_OF_ASC_NODE": 226.5356, "ARG_OF_PERICENTER": 212.642, "MEAN_ANOMALY": 325.1995, "EPHEMERIS_TYPE": 0, "CLASSIFICATION_TYPE": "U", "NORAD_CAT_ID": 61182, "ELEMENT_SET_NO": 999, "REV_AT_EPOCH": 763, "BSTAR": 0, "MEAN_MOTION_DOT": 1.4e-07, "MEAN_MOTION_DDOT": 0}, "tle": {"line1": "1 61182U 24167A   25342.92326192  .00000014  00000+0  00000+0 0  9991", "line2": "2 61182  55.2421 226.5356 0002030 212.6420 325.1995  1.70473333  7631"}}, "geometry": {"type": "Point", "coordinates": [35.19379668606045, 15.818178835375061]}}]}